{
    "links": {
        "self": "http://www.neowsapp.com/rest/v1/neo/3753289?api_key=iIulBulltgU6a56xZRHN4H3l9WmuAYTsLGpBGhQ2"
    },
    "id": "3753289",
    "neo_reference_id": "3753289",
    "name": "(2016 JV28)",
    "designation": "2016 JV28",
    "nasa_jpl_url": "http://ssd.jpl.nasa.gov/sbdb.cgi?sstr=3753289",
    "absolute_magnitude_h": 24.4,
    "estimated_diameter": {
        "kilometers": {
            "estimated_diameter_min": 0.0350392641,
            "estimated_diameter_max": 0.0783501764
        },
        "meters": {
            "estimated_diameter_min": 35.0392641108,
            "estimated_diameter_max": 78.3501764334
        },
        "miles": {
            "estimated_diameter_min": 0.0217723826,
            "estimated_diameter_max": 0.0486845275
        },
        "feet": {
            "estimated_diameter_min": 114.9582192654,
            "estimated_diameter_max": 257.0543928497
        }
    },
    "is_potentially_hazardous_asteroid": false,
    "close_approach_data": [
        {
            "close_approach_date": "2016-05-01",
            "close_approach_date_full": "2016-May-01 00:51",
            "epoch_date_close_approach": 1462063860000,
            "relative_velocity": {
                "kilometers_per_second": "12.0168926874",
                "kilometers_per_hour": "43260.8136745982",
                "miles_per_hour": "26880.5872524191"
            },
            "miss_distance": {
                "astronomical": "0.1156800186",
                "lunar": "44.9995272354",
                "kilometers": "17305484.384120382",
                "miles": "10753129.3670579916"
            },
            "orbiting_body": "Earth"
        }
    ],
    "orbital_data": {
        "orbit_id": "4",
        "orbit_determination_date": "2017-04-06 08:25:55",
        "first_observation_date": "2016-05-10",
        "last_observation_date": "2016-06-04",
        "data_arc_in_days": 25,
        "observations_used": 17,
        "orbit_uncertainty": "8",
        "minimum_orbit_intersection": ".103027",
        "jupiter_tisserand_invariant": "3.493",
        "epoch_osculation": "2457532.5",
        "eccentricity": ".534694048936344",
        "semi_major_axis": "2.139041036763098",
        "inclination": "11.95124223461766",
        "ascending_node_longitude": "57.65672074407843",
        "orbital_period": "1142.686513129782",
        "perihelion_distance": ".9953085239752421",
        "perihelion_argument": "120.9900066602587",
        "aphelion_distance": "3.282773549550953",
        "perihelion_time": "2457476.131328639394",
        "mean_anomaly": "17.75878288283725",
        "mean_motion": ".3150470368412517",
        "equinox": "J2000",
        "orbit_class": {
            "orbit_class_type": "APO",
            "orbit_class_description": "Near-Earth asteroid orbits which cross the Earth’s orbit similar to that of 1862 Apollo",
            "orbit_class_range": "a (semi-major axis) > 1.0 AU; q (perihelion) < 1.017 AU"
        }
    },
    "is_sentry_object": false
}